OTTER                   
1 66680U 25276Q   26068.72634339  .00007104  00000+0  35224-3 0  9997
2 66680  97.4276 143.8857 0005472   0.7152 359.4088 15.18022658 15317
6GSTARLAB               
1 66683U 25276T   26068.72531437  .00003852  00000+0  19397-3 0  9994
2 66683  97.4314 143.9369 0005490 357.0760   3.0440 15.17770534 15311
