[{"OBJECT_NAME":"OTTER","OBJECT_ID":"2025-276Q","EPOCH":"2026-03-09T17:25:56.068896","MEAN_MOTION":15.18022658,"ECCENTRICITY":0.00054717,"INCLINATION":97.4276,"RA_OF_ASC_NODE":143.8857,"ARG_OF_PERICENTER":0.7152,"MEAN_ANOMALY":359.4088,"EPHEMERIS_TYPE":0,"CLASSIFICATION_TYPE":"U","NORAD_CAT_ID":66680,"ELEMENT_SET_NO":999,"REV_AT_EPOCH":1531,"BSTAR":0.00035224337,"MEAN_MOTION_DOT":7.104e-5,"MEAN_MOTION_DDOT":0},{"OBJECT_NAME":"6GSTARLAB","OBJECT_ID":"2025-276T","EPOCH":"2026-03-09T17:24:27.161568","MEAN_MOTION":15.17770534,"ECCENTRICITY":0.00054902,"INCLINATION":97.4314,"RA_OF_ASC_NODE":143.9369,"ARG_OF_PERICENTER":357.076,"MEAN_ANOMALY":3.044,"EPHEMERIS_TYPE":0,"CLASSIFICATION_TYPE":"U","NORAD_CAT_ID":66683,"ELEMENT_SET_NO":999,"REV_AT_EPOCH":1531,"BSTAR":0.00019396576,"MEAN_MOTION_DOT":3.852e-5,"MEAN_MOTION_DDOT":0}]
